NORAD_CAT_ID,OBJECT_NAME,OBJECT_TYPE,EPOCH,MEAN_MOTION,ECCENTRICITY,INCLINATION,RA_OF_ASC_NODE,ARG_OF_PERICENTER,MEAN_ANOMALY,BSTAR,MEAN_MOTION_DOT,MEAN_MOTION_DDOT,TLE_LINE0,TLE_LINE1,TLE_LINE2,SEMIMAJOR_AXIS,PERIOD,APOGEE,PERIGEE,DECAYED
52372.0,STARLINK-3796,PAYLOAD,2023-05-07 20:06:15,15.08846336,0.0001377,53.2134,163.7302,72.483,287.6312,0.00021811,3.186e-05,0.0,0 STARLINK-3796,1 52372U 22045AT  23127.83768260  .00003186  00000-0  21811-3 0  9991,2 52372  53.2134 163.7302 0001377  72.4830 287.6312 15.08846336 59381,6917.861,95.437,540.679,538.773,0.0
52372.0,STARLINK-3796,PAYLOAD,2023-05-08 12:00:07,15.08840317,0.0001226,53.2151,160.7561,91.0489,269.0644,4.1737e-05,3.76e-06,0.0,0 STARLINK-3796,1 52372U 22045AT  23128.50008476  .00000376  00000-0  41737-4 0  9990,2 52372  53.2151 160.7561 0001226  91.0489 269.0644 15.08840317 59480,6917.879,95.438,540.593,538.896,0.0
52372.0,STARLINK-3796,PAYLOAD,2023-05-09 11:50:53,15.08849566,0.0001352,53.2153,156.2962,92.6265,267.4882,-1.0575e-05,-4.56e-06,0.0,0 STARLINK-3796,1 52372U 22045AT  23129.49367910 -.00000456  00000-0 -10575-4 0  9997,2 52372  53.2153 156.2962 0001352  92.6265 267.4882 15.08849566 59634,6917.851,95.437,540.651,538.781,0.0
52372.0,STARLINK-3796,PAYLOAD,2023-05-10 10:06:18,15.08840182,0.0001173,53.2155,152.1327,88.253,271.8596,0.00011648,1.566e-05,0.0,0 STARLINK-3796,1 52372U 22045AT  23130.42104588  .00001566  00000-0  11648-3 0  9994,2 52372  53.2155 152.1327 0001173  88.2530 271.8596 15.08840182 59774,6917.88,95.438,540.556,538.933,0.0
52372.0,STARLINK-3796,PAYLOAD,2023-05-10 18:03:14,15.08837584,0.0001215,53.2152,150.6455,102.2261,257.8867,0.00011998,1.622e-05,0.0,0 STARLINK-3796,1 52372U 22045AT  23130.75224864  .00001622  00000-0  11998-3 0  9991,2 52372  53.2152 150.6455 0001215 102.2261 257.8867 15.08837584 59824,6917.888,95.438,540.593,538.912,0.0
52372.0,STARLINK-3796,PAYLOAD,2023-05-11 06:46:19,15.08839865,0.0001182,53.2151,148.2659,92.5195,267.5932,4.4534e-05,4.21e-06,0.0,0 STARLINK-3796,1 52372U 22045AT  23131.28216835  .00000421  00000-0  44534-4 0  9998,2 52372  53.2151 148.2659 0001182  92.5195 267.5932 15.08839865 59906,6917.881,95.438,540.563,538.928,0.0
52372.0,STARLINK-3796,PAYLOAD,2023-05-11 17:54:01,15.08838712,0.0001141,53.2153,146.1846,87.6861,272.4262,5.643e-05,6.1e-06,0.0,0 STARLINK-3796,1 52372U 22045AT  23131.74584915  .00000610  00000-0  56430-4 0  9994,2 52372  53.2153 146.1846 0001141  87.6861 272.4262 15.08838712 59971,6917.884,95.438,540.539,538.96,0.0
52372.0,STARLINK-3796,PAYLOAD,2023-05-11 22:40:10,15.08835735,0.0001128,53.2151,145.2931,89.8686,270.2435,8.0815e-05,9.98e-06,0.0,0 STARLINK-3796,1 52372U 22045AT  23131.94457097  .00000998  00000-0  80815-4 0  9999,2 52372  53.2151 145.2931 0001128  89.8686 270.2435 15.08835735 60004,6917.893,95.438,540.539,538.978,0.0
52372.0,STARLINK-3796,PAYLOAD,2023-05-12 17:44:48,15.08840121,0.0001096,53.2152,141.7246,89.7482,270.3635,8.1568e-05,1.011e-05,0.0,0 STARLINK-3796,1 52372U 22045AT  23132.73944952  .00001011  00000-0  81568-4 0  9991,2 52372  53.2152 141.7246 0001096  89.7482 270.3635 15.08840121 60123,6917.88,95.438,540.503,538.987,0.0
52372.0,STARLINK-3796,PAYLOAD,2023-05-13 06:27:53,15.08843268,0.0001097,53.2151,139.3456,89.3876,270.7242,0.00010837,1.437e-05,0.0,0 STARLINK-3796,1 52372U 22045AT  23133.26936710  .00001437  00000-0  10837-3 0  9995,2 52372  53.2151 139.3456 0001097  89.3876 270.7242 15.08843268 60204,6917.87,95.437,540.494,538.977,0.0
52372.0,STARLINK-3796,PAYLOAD,2023-05-13 08:03:16,15.08843672,0.0001099,53.2152,139.0484,89.2746,270.8373,0.00011106,1.48e-05,0.0,0 STARLINK-3796,1 52372U 22045AT  23133.33560682  .00001480  00000-0  11106-3 0  9992,2 52372  53.2152 139.0484 0001099  89.2746 270.8373 15.08843672 60216,6917.869,95.437,540.494,538.974,0.0
52372.0,STARLINK-3796,PAYLOAD,2023-05-13 17:35:35,15.08839834,0.0001101,53.2151,137.263,87.3456,272.7662,7.002e-05,8.27e-06,0.0,0 STARLINK-3796,1 52372U 22045AT  23133.73304963  .00000827  00000-0  70020-4 0  9999,2 52372  53.2151 137.2630 0001101  87.3456 272.7662 15.08839834 60272,6917.881,95.438,540.508,538.984,0.0
52372.0,STARLINK-3796,PAYLOAD,2023-05-14 06:18:40,15.08835867,0.0001109,53.2151,134.884,88.221,271.8909,4.9941e-05,5.07e-06,0.0,0 STARLINK-3796,1 52372U 22045AT  23134.26297384  .00000507  00000-0  49941-4 0  9999,2 52372  53.2151 134.8840 0001109  88.2210 271.8909 15.08835867 60359,6917.893,95.438,540.525,538.991,0.0
52372.0,STARLINK-3796,PAYLOAD,2023-05-14 17:26:22,15.08840253,0.0001159,53.2153,132.8023,87.2566,272.8558,6.1505e-05,6.91e-06,0.0,0 STARLINK-3796,1 52372U 22045AT  23134.72665080  .00000691  00000-0  61505-4 0  9996,2 52372  53.2153 132.8023 0001159  87.2566 272.8558 15.08840253 60424,6917.88,95.438,540.546,538.943,0.0
52372.0,STARLINK-3796,PAYLOAD,2023-05-15 06:09:27,15.0884444,0.0001166,53.2152,130.4232,87.574,272.5386,5.8862e-05,6.49e-06,0.0,0 STARLINK-3796,1 52372U 22045AT  23135.25656732  .00000649  00000-0  58862-4 0  9994,2 52372  53.2152 130.4232 0001166  87.5740 272.5386 15.08844440 60501,6917.867,95.437,540.538,538.925,0.0
52372.0,STARLINK-3796,PAYLOAD,2023-05-16 06:00:14,15.08837591,0.0001176,53.2152,125.9617,91.0936,269.0191,6.6252e-05,7.67e-06,0.0,0 STARLINK-3796,1 52372U 22045AT  23136.25017175  .00000767  00000-0  66252-4 0  9990,2 52372  53.2152 125.9617 0001176  91.0936 269.0191 15.08837591 60655,6917.888,95.438,540.566,538.939,0.0
52372.0,STARLINK-3796,PAYLOAD,2023-05-16 09:11:01,15.08837574,0.0001177,53.2154,125.3672,90.9665,269.1461,4.7176e-05,4.63e-06,0.0,0 STARLINK-3796,1 52372U 22045AT  23136.38265243  .00000463  00000-0  47176-4 0  9992,2 52372  53.2154 125.3672 0001177  90.9665 269.1461 15.08837574 60674,6917.888,95.438,540.567,538.939,0.0
52372.0,STARLINK-3796,PAYLOAD,2023-05-17 15:23:21,15.08835453,0.000117,53.2155,119.7175,89.0594,271.0533,1.5384e-05,-4.3e-07,0.0,0 STARLINK-3796,1 52372U 22045AT  23137.64121660 -.00000043  00000-0  15384-4 0  9997,2 52372  53.2155 119.7175 0001170  89.0594 271.0533 15.08835453 60860,6917.894,95.438,540.569,538.95,0.0
52372.0,STARLINK-3796,PAYLOAD,2023-05-18 05:41:49,15.08837233,0.0001127,53.2155,117.0414,88.6569,271.4553,5.4679e-05,5.82e-06,0.0,0 STARLINK-3796,1 52372U 22045AT  23138.23737563  .00000582  00000-0  54679-4 0  9995,2 52372  53.2155 117.0414 0001127  88.6569 271.4553 15.08837233 60950,6917.889,95.438,540.533,538.974,0.0
52372.0,STARLINK-3796,PAYLOAD,2023-05-19 05:32:36,15.08837933,0.0001125,53.2157,112.5823,94.2235,265.8885,6.3414e-05,7.22e-06,0.0,0 STARLINK-3796,1 52372U 22045AT  23139.23097806  .00000722  00000-0  63414-4 0  9998,2 52372  53.2157 112.5823 0001125  94.2235 265.8885 15.08837933 61107,6917.887,95.438,540.53,538.973,0.0
52372.0,STARLINK-3796,PAYLOAD,2023-05-19 21:26:28,15.08835051,0.0001155,53.2153,109.6082,96.3321,263.7802,3.4923e-05,2.68e-06,0.0,0 STARLINK-3796,1 52372U 22045AT  23139.89338190  .00000268  00000-0  34923-4 0  9992,2 52372  53.2153 109.6082 0001155  96.3321 263.7802 15.08835051 61205,6917.896,95.438,540.56,538.961,0.0
52372.0,STARLINK-3796,PAYLOAD,2023-05-20 06:58:46,15.08841625,0.0001151,53.2154,107.8236,96.4557,263.6566,6.0591e-05,6.77e-06,0.0,0 STARLINK-3796,1 52372U 22045AT  23140.29081834  .00000677  00000-0  60591-4 0  9992,2 52372  53.2154 107.8236 0001151  96.4557 263.6566 15.08841625 61261,6917.875,95.437,540.537,538.944,0.0
52372.0,STARLINK-3796,PAYLOAD,2023-05-21 06:49:32,15.08853977,0.0001216,53.2157,103.3628,92.9509,267.1623,0.00013512,1.864e-05,0.0,0 STARLINK-3796,1 52372U 22045AT  23141.28440680  .00001864  00000-0  13512-3 0  9999,2 52372  53.2157 103.3628 0001216  92.9509 267.1623 15.08853977 61413,6917.838,95.437,540.544,538.861,0.0
52372.0,STARLINK-3796,PAYLOAD,2023-05-21 21:08:02,15.08830783,0.0001314,53.2166,100.686,91.2788,268.8354,-4.6673e-06,-3.62e-06,0.0,0 STARLINK-3796,1 52372U 22045AT  23141.88058768 -.00000362  00000-0 -46673-5 0  9997,2 52372  53.2166 100.6860 0001314  91.2788 268.8354 15.08830783 61500,6917.909,95.438,540.683,538.865,0.0
52372.0,STARLINK-3796,PAYLOAD,2023-05-22 03:29:35,15.08832567,0.0001308,53.2166,99.4962,91.004,269.1102,-1.5016e-05,-5.27e-06,0.0,0 STARLINK-3796,1 52372U 22045AT  23142.14554829 -.00000527  00000-0 -15016-4 0  9995,2 52372  53.2166  99.4962 0001308  91.0040 269.1102 15.08832567 61541,6917.903,95.438,540.673,538.863,0.0
52372.0,STARLINK-3796,PAYLOAD,2023-05-22 20:58:49,15.08845716,0.0001219,53.2168,96.2247,88.2856,271.8276,-1.1072e-05,-4.64e-06,0.0,0 STARLINK-3796,1 52372U 22045AT  23142.87418187 -.00000464  00000-0 -11072-4 0  9999,2 52372  53.2168  96.2247 0001219  88.2856 271.8276 15.08845716 61652,6917.863,95.437,540.571,538.885,0.0
52372.0,STARLINK-3796,PAYLOAD,2023-05-23 01:44:58,15.08851123,0.0001232,53.2169,95.3339,84.8542,275.2591,4.3956e-05,4.12e-06,0.0,0 STARLINK-3796,1 52372U 22045AT  23143.07289697  .00000412  00000-0  43956-4 0  9991,2 52372  53.2169  95.3339 0001232  84.8542 275.2591 15.08851123 61684,6917.846,95.437,540.564,538.859,0.0
52372.0,STARLINK-3796,PAYLOAD,2023-05-23 03:20:21,15.08852916,0.0001254,53.2169,95.0365,86.0699,274.0436,6.7496e-05,7.87e-06,0.0,0 STARLINK-3796,1 52372U 22045AT  23143.13913555  .00000787  00000-0  67496-4 0  9995,2 52372  53.2169  95.0365 0001254  86.0699 274.0436 15.08852916 61698,6917.841,95.437,540.573,538.838,0.0
52372.0,STARLINK-3796,PAYLOAD,2023-05-24 03:11:08,15.08844954,0.0001438,53.2175,90.576,89.5988,270.5169,0.00023973,3.53e-05,0.0,0 STARLINK-3796,1 52372U 22045AT  23144.13274209  .00003530  00000-0  23973-3 0  9992,2 52372  53.2175  90.5760 0001438  89.5988 270.5169 15.08844954 61841,6917.865,95.437,540.725,538.735,0.0
52372.0,STARLINK-3796,PAYLOAD,2023-05-24 06:21:55,15.0884614,0.0001417,53.2175,89.9813,89.0794,271.0361,0.00024049,3.542e-05,0.0,0 STARLINK-3796,1 52372U 22045AT  23144.26522147  .00003542  00000-0  24049-3 0  9991,2 52372  53.2175  89.9813 0001417  89.0794 271.0361 15.08846140 61860,6917.862,95.437,540.707,538.746,0.0
